ORBCOMM FM115           
1 41186U 15081H   24137.31358025  .00002492  00000+0  54136-3 0  9997
2 41186  46.9966 124.5382 0000831 335.6268  24.4579 14.60696578449710
ORBCOMM FM108           
1 41187U 15081J   24137.51376930  .00001929  00000+0  46561-3 0  9992
2 41187  47.0026 178.0805 0003644 284.3739  75.6742 14.56616228448934
ORBCOMM FM117           
1 41188U 15081K   24137.47965587  .00001835  00000+0  44500-3 0  9997
2 41188  46.9988 177.1332 0004060 294.8656  65.1806 14.56590487448979
ORBCOMM FM116           
1 41189U 15081L   24137.40023801  .00003147  00000+0  73591-3 0  9995
2 41189  47.0005 267.3260 0001377  12.8951 347.1969 14.56625683447775
